[{"OBJECT_NAME":"STARLINK-31069","OBJECT_ID":"2023-200U","EPOCH":"2026-03-09T22:00:01.999584","MEAN_MOTION":15.26757578,"ECCENTRICITY":0.00014389,"INCLINATION":42.9995,"RA_OF_ASC_NODE":167.4364,"ARG_OF_PERICENTER":264.9451,"MEAN_ANOMALY":218.2454,"EPHEMERIS_TYPE":0,"CLASSIFICATION_TYPE":"U","NORAD_CAT_ID":58607,"ELEMENT_SET_NO":999,"REV_AT_EPOCH":563,"BSTAR":-0.00040465945,"MEAN_MOTION_DOT":-0.00011104,"MEAN_MOTION_DDOT":0},{"OBJECT_NAME":"WT 1B","OBJECT_ID":"2019-032G","EPOCH":"2026-03-09T21:42:21.881088","MEAN_MOTION":15.25021485,"ECCENTRICITY":0.0008099,"INCLINATION":44.9738,"RA_OF_ASC_NODE":242.0209,"ARG_OF_PERICENTER":49.7728,"MEAN_ANOMALY":310.3861,"EPHEMERIS_TYPE":0,"CLASSIFICATION_TYPE":"U","NORAD_CAT_ID":44316,"ELEMENT_SET_NO":999,"REV_AT_EPOCH":37191,"BSTAR":0.00065022477,"MEAN_MOTION_DOT":0.00016297,"MEAN_MOTION_DDOT":0}]
